{"fetched_at":"2026-04-05T16:38:53Z","count":17295,"tles":[{"name":"UNKNOWN","line1":"1 82893U          26094.60326532  .00012254  00000+0  43999-2 0  9997","line2":"2 82893  98.9628 218.5078 0023979  83.0871 277.3039 14.33821330440133","category":"Other"},{"name":"UNKNOWN","line1":"1 82912U          26094.22882103  .00004382  00000+0  18223-2 0  9993","line2":"2 82912  65.8339 274.8549 0769394 217.7657 136.6950 13.28514923594264","category":"Other"},{"name":"UNKNOWN","line1":"1 82961U          26092.38170860  .00012585  00000+0  18388-1 0  9997","line2":"2 82961  99.8184 246.2103 0400387 108.8204 255.6780 13.26653828570368","category":"Other"},{"name":"UNKNOWN","line1":"1 82965U          26072.67873180  .00001132  00000+0  15749-2 0  9991","line2":"2 82965 100.1074 160.1438 0003543 183.0318 177.0799 13.60232436536810","category":"Other"},{"name":"UNKNOWN","line1":"1 82739U          26093.40243537  .00000824  00000+0  71000-3 0  9991","line2":"2 82739  99.0971 250.9783 0169793 354.5530  33.6824 13.83005849621545","category":"Other"},{"name":"UNKNOWN","line1":"1 82741U          26094.46689033  .00002420  00000+0  26342-2 0  9998","line2":"2 82741 102.8410 171.2281 0193713  14.7134 345.9529 13.66568692612475","category":"Other"},{"name":"UNKNOWN","line1":"1 82783U          26094.29885453  .00001763  00000+0  51130-2 0  9991","line2":"2 82783  90.3475  41.7723 0020304 159.1702 201.0257 13.09134297519085","category":"Other"},{"name":"UNKNOWN","line1":"1 82820U          26090.97461871  .00003726  00000+0  12861-2 0  9997","line2":"2 82820  99.7965 271.3382 0048489  64.9555 295.6650 14.35883151641306","category":"Other"},{"name":"UNKNOWN","line1":"1 82829U          26084.48836679  .00000210  00000+0  69735-2 0  9994","line2":"2 82829  65.0952 253.4585 0175129 314.9407  65.8445 11.29179881497686","category":"Other"},{"name":"UNKNOWN","line1":"1 82854U          26089.95382050  .00002243  00000+0  17411-2 0  9990","line2":"2 82854  82.6921 339.7053 0131046 335.3291  24.1638 13.88258393622811","category":"Other"},{"name":"UNKNOWN","line1":"1 82873U          26092.20616506  .00004743  00000+0  20188-2 0  9991","line2":"2 82873  99.9947   6.5532 0039873 338.4148  21.5345 14.25334886636963","category":"Other"},{"name":"UNKNOWN","line1":"1 82875U          26091.19966969  .00001326  00000+0  35534-3 0  9997","line2":"2 82875  98.6894  76.9418 0376718 329.1838  28.7696 14.15376682559951","category":"Other"}]}