CCSDS_OMM_VERS = 2.0
CREATION_DATE  = 
ORIGINATOR     = 

OBJECT_NAME    = UNKNOWN
OBJECT_ID      = 
CENTER_NAME    = EARTH
REF_FRAME      = TEME
TIME_SYSTEM    = UTC
MEAN_ELEMENT_THEORY = SGP/SGP4

EPOCH          = 2026-04-03T09:39:30.415968
MEAN_MOTION    = 13.83005849
ECCENTRICITY   = .0169793
INCLINATION    = 99.0971
RA_OF_ASC_NODE = 250.9783
ARG_OF_PERICENTER = 354.5530
MEAN_ANOMALY   = 33.6824

EPHEMERIS_TYPE = 0
CLASSIFICATION_TYPE = U
NORAD_CAT_ID   = 82739
ELEMENT_SET_NO = 999
REV_AT_EPOCH   = 62154
BSTAR          = .71E-3
MEAN_MOTION_DOT = .824E-5
MEAN_MOTION_DDOT = 0

CCSDS_OMM_VERS = 2.0
CREATION_DATE  = 
ORIGINATOR     = 

OBJECT_NAME    = UNKNOWN
OBJECT_ID      = 
CENTER_NAME    = EARTH
REF_FRAME      = TEME
TIME_SYSTEM    = UTC
MEAN_ELEMENT_THEORY = SGP/SGP4

EPOCH          = 2026-04-04T11:12:19.324512
MEAN_MOTION    = 13.66568692
ECCENTRICITY   = .0193713
INCLINATION    = 102.8410
RA_OF_ASC_NODE = 171.2281
ARG_OF_PERICENTER = 14.7134
MEAN_ANOMALY   = 345.9529

EPHEMERIS_TYPE = 0
CLASSIFICATION_TYPE = U
NORAD_CAT_ID   = 82741
ELEMENT_SET_NO = 999
REV_AT_EPOCH   = 61247
BSTAR          = .26342E-2
MEAN_MOTION_DOT = .242E-4
MEAN_MOTION_DDOT = 0

CCSDS_OMM_VERS = 2.0
CREATION_DATE  = 
ORIGINATOR     = 

OBJECT_NAME    = UNKNOWN
OBJECT_ID      = 
CENTER_NAME    = EARTH
REF_FRAME      = TEME
TIME_SYSTEM    = UTC
MEAN_ELEMENT_THEORY = SGP/SGP4

EPOCH          = 2026-04-04T07:10:21.031392
MEAN_MOTION    = 13.09134297
ECCENTRICITY   = .0020304
INCLINATION    = 90.3475
RA_OF_ASC_NODE = 41.7723
ARG_OF_PERICENTER = 159.1702
MEAN_ANOMALY   = 201.0257

EPHEMERIS_TYPE = 0
CLASSIFICATION_TYPE = U
NORAD_CAT_ID   = 82783
ELEMENT_SET_NO = 999
REV_AT_EPOCH   = 51908
BSTAR          = .5113E-2
MEAN_MOTION_DOT = .1763E-4
MEAN_MOTION_DDOT = 0

CCSDS_OMM_VERS = 2.0
CREATION_DATE  = 
ORIGINATOR     = 

OBJECT_NAME    = UNKNOWN
OBJECT_ID      = 
CENTER_NAME    = EARTH
REF_FRAME      = TEME
TIME_SYSTEM    = UTC
MEAN_ELEMENT_THEORY = SGP/SGP4

EPOCH          = 2026-03-31T23:23:27.056544
MEAN_MOTION    = 14.35883151
ECCENTRICITY   = .0048489
INCLINATION    = 99.7965
RA_OF_ASC_NODE = 271.3382
ARG_OF_PERICENTER = 64.9555
MEAN_ANOMALY   = 295.6650

EPHEMERIS_TYPE = 0
CLASSIFICATION_TYPE = U
NORAD_CAT_ID   = 82820
ELEMENT_SET_NO = 999
REV_AT_EPOCH   = 64130
BSTAR          = .12861E-2
MEAN_MOTION_DOT = .3726E-4
MEAN_MOTION_DDOT = 0

CCSDS_OMM_VERS = 2.0
CREATION_DATE  = 
ORIGINATOR     = 

OBJECT_NAME    = UNKNOWN
OBJECT_ID      = 
CENTER_NAME    = EARTH
REF_FRAME      = TEME
TIME_SYSTEM    = UTC
MEAN_ELEMENT_THEORY = SGP/SGP4

EPOCH          = 2026-03-25T11:43:14.890656
MEAN_MOTION    = 11.29179881
ECCENTRICITY   = .0175129
INCLINATION    = 65.0952
RA_OF_ASC_NODE = 253.4585
ARG_OF_PERICENTER = 314.9407
MEAN_ANOMALY   = 65.8445

EPHEMERIS_TYPE = 0
CLASSIFICATION_TYPE = U
NORAD_CAT_ID   = 82829
ELEMENT_SET_NO = 999
REV_AT_EPOCH   = 49768
BSTAR          = .69735E-2
MEAN_MOTION_DOT = .21E-5
MEAN_MOTION_DDOT = 0

CCSDS_OMM_VERS = 2.0
CREATION_DATE  = 
ORIGINATOR     = 

OBJECT_NAME    = UNKNOWN
OBJECT_ID      = 
CENTER_NAME    = EARTH
REF_FRAME      = TEME
TIME_SYSTEM    = UTC
MEAN_ELEMENT_THEORY = SGP/SGP4

EPOCH          = 2026-03-30T22:53:30.091200
MEAN_MOTION    = 13.88258393
ECCENTRICITY   = .0131046
INCLINATION    = 82.6921
RA_OF_ASC_NODE = 339.7053
ARG_OF_PERICENTER = 335.3291
MEAN_ANOMALY   = 24.1638

EPHEMERIS_TYPE = 0
CLASSIFICATION_TYPE = U
NORAD_CAT_ID   = 82854
ELEMENT_SET_NO = 999
REV_AT_EPOCH   = 62281
BSTAR          = .17411E-2
MEAN_MOTION_DOT = .2243E-4
MEAN_MOTION_DDOT = 0

CCSDS_OMM_VERS = 2.0
CREATION_DATE  = 
ORIGINATOR     = 

OBJECT_NAME    = UNKNOWN
OBJECT_ID      = 
CENTER_NAME    = EARTH
REF_FRAME      = TEME
TIME_SYSTEM    = UTC
MEAN_ELEMENT_THEORY = SGP/SGP4

EPOCH          = 2026-04-02T04:56:52.661184
MEAN_MOTION    = 14.25334886
ECCENTRICITY   = .0039873
INCLINATION    = 99.9947
RA_OF_ASC_NODE = 6.5532
ARG_OF_PERICENTER = 338.4148
MEAN_ANOMALY   = 21.5345

EPHEMERIS_TYPE = 0
CLASSIFICATION_TYPE = U
NORAD_CAT_ID   = 82873
ELEMENT_SET_NO = 999
REV_AT_EPOCH   = 63696
BSTAR          = .20188E-2
MEAN_MOTION_DOT = .4743E-4
MEAN_MOTION_DDOT = 0

CCSDS_OMM_VERS = 2.0
CREATION_DATE  = 
ORIGINATOR     = 

OBJECT_NAME    = UNKNOWN
OBJECT_ID      = 
CENTER_NAME    = EARTH
REF_FRAME      = TEME
TIME_SYSTEM    = UTC
MEAN_ELEMENT_THEORY = SGP/SGP4

EPOCH          = 2026-04-01T04:47:31.461216
MEAN_MOTION    = 14.15376682
ECCENTRICITY   = .0376718
INCLINATION    = 98.6894
RA_OF_ASC_NODE = 76.9418
ARG_OF_PERICENTER = 329.1838
MEAN_ANOMALY   = 28.7696

EPHEMERIS_TYPE = 0
CLASSIFICATION_TYPE = U
NORAD_CAT_ID   = 82875
ELEMENT_SET_NO = 999
REV_AT_EPOCH   = 55995
BSTAR          = .35534E-3
MEAN_MOTION_DOT = .1326E-4
MEAN_MOTION_DDOT = 0

CCSDS_OMM_VERS = 2.0
CREATION_DATE  = 
ORIGINATOR     = 

OBJECT_NAME    = UNKNOWN
OBJECT_ID      = 
CENTER_NAME    = EARTH
REF_FRAME      = TEME
TIME_SYSTEM    = UTC
MEAN_ELEMENT_THEORY = SGP/SGP4

EPOCH          = 2026-04-04T14:28:42.123648
MEAN_MOTION    = 14.33821330
ECCENTRICITY   = .0023979
INCLINATION    = 98.9628
RA_OF_ASC_NODE = 218.5078
ARG_OF_PERICENTER = 83.0871
MEAN_ANOMALY   = 277.3039

EPHEMERIS_TYPE = 0
CLASSIFICATION_TYPE = U
NORAD_CAT_ID   = 82893
ELEMENT_SET_NO = 999
REV_AT_EPOCH   = 44013
BSTAR          = .43999E-2
MEAN_MOTION_DOT = .12254E-3
MEAN_MOTION_DDOT = 0

CCSDS_OMM_VERS = 2.0
CREATION_DATE  = 
ORIGINATOR     = 

OBJECT_NAME    = UNKNOWN
OBJECT_ID      = 
CENTER_NAME    = EARTH
REF_FRAME      = TEME
TIME_SYSTEM    = UTC
MEAN_ELEMENT_THEORY = SGP/SGP4

EPOCH          = 2026-04-04T05:29:30.136992
MEAN_MOTION    = 13.28514923
ECCENTRICITY   = .0769394
INCLINATION    = 65.8339
RA_OF_ASC_NODE = 274.8549
ARG_OF_PERICENTER = 217.7657
MEAN_ANOMALY   = 136.6950

EPHEMERIS_TYPE = 0
CLASSIFICATION_TYPE = U
NORAD_CAT_ID   = 82912
ELEMENT_SET_NO = 999
REV_AT_EPOCH   = 59426
BSTAR          = .18223E-2
MEAN_MOTION_DOT = .4382E-4
MEAN_MOTION_DDOT = 0

CCSDS_OMM_VERS = 2.0
CREATION_DATE  = 
ORIGINATOR     = 

OBJECT_NAME    = UNKNOWN
OBJECT_ID      = 
CENTER_NAME    = EARTH
REF_FRAME      = TEME
TIME_SYSTEM    = UTC
MEAN_ELEMENT_THEORY = SGP/SGP4

EPOCH          = 2026-04-02T09:09:39.623040
MEAN_MOTION    = 13.26653828
ECCENTRICITY   = .0400387
INCLINATION    = 99.8184
RA_OF_ASC_NODE = 246.2103
ARG_OF_PERICENTER = 108.8204
MEAN_ANOMALY   = 255.6780

EPHEMERIS_TYPE = 0
CLASSIFICATION_TYPE = U
NORAD_CAT_ID   = 82961
ELEMENT_SET_NO = 999
REV_AT_EPOCH   = 57036
BSTAR          = .18388E-1
MEAN_MOTION_DOT = .12585E-3
MEAN_MOTION_DDOT = 0

CCSDS_OMM_VERS = 2.0
CREATION_DATE  = 
ORIGINATOR     = 

OBJECT_NAME    = UNKNOWN
OBJECT_ID      = 
CENTER_NAME    = EARTH
REF_FRAME      = TEME
TIME_SYSTEM    = UTC
MEAN_ELEMENT_THEORY = SGP/SGP4

EPOCH          = 2026-03-13T16:17:22.427520
MEAN_MOTION    = 13.60232436
ECCENTRICITY   = .0003543
INCLINATION    = 100.1074
RA_OF_ASC_NODE = 160.1438
ARG_OF_PERICENTER = 183.0318
MEAN_ANOMALY   = 177.0799

EPHEMERIS_TYPE = 0
CLASSIFICATION_TYPE = U
NORAD_CAT_ID   = 82965
ELEMENT_SET_NO = 999
REV_AT_EPOCH   = 53681
BSTAR          = .15749E-2
MEAN_MOTION_DOT = .1132E-4
MEAN_MOTION_DDOT = 0

